IRIDIUM 112             
1 41925U 17003J   24238.84428334  .00000700  00000+0  24282-3 0  9994
2 41925  86.4013   4.2499 0002549  92.1950 267.9538 14.34220465398651
IRIDIUM 111             
1 41926U 17003K   24238.83159601  .00000066  00000+0  16445-4 0  9990
2 41926  86.4014   4.3109 0002419  87.0744 273.0728 14.34214306398670
IRIDIUM 113             
1 42803U 17039A   24238.95110249  .00000003  00000+0 -58860-5 0  9992
2 42803  86.3940 238.0170 0002313  84.8016 275.3444 14.34217383376557
IRIDIUM 123             
1 42804U 17039B   24238.36467294  .00000557  00000+0  19177-3 0  9992
2 42804  86.3918 269.7690 0002194  87.8664 272.2783 14.34220470375237
IRIDIUM 120             
1 42805U 17039C   24239.43313956  .00000315  00000+0  10524-3 0  9996
2 42805  86.3927 237.6833 0002236  89.6382 270.5070 14.34218517376617
IRIDIUM 115             
1 42806U 17039D   24239.08895455  .00000370  00000+0  10409-3 0  9990
2 42806  86.4465 237.8620 0002543  83.2756 276.8734 14.43273412379050
IRIDIUM 118             
1 42807U 17039E   24238.81498826  .00000386  00000+0  13065-3 0  9990
2 42807  86.3916 269.5815 0002239  96.4747 263.6703 14.34221204375291
IRIDIUM 117             
1 42808U 17039F   24238.83401463  .00000426  00000+0  14494-3 0  9996
2 42808  86.3916 269.5374 0002329  88.4319 271.7144 14.34219723375324
